[{"OBJECT_NAME":"SKYSAT-C6","OBJECT_ID":"2017-068F","EPOCH":"2026-03-09T21:33:49.392576","MEAN_MOTION":15.32504544,"ECCENTRICITY":0.00036369,"INCLINATION":97.44,"RA_OF_ASC_NODE":205.7173,"ARG_OF_PERICENTER":127.5085,"MEAN_ANOMALY":232.6488,"EPHEMERIS_TYPE":0,"CLASSIFICATION_TYPE":"U","NORAD_CAT_ID":42992,"ELEMENT_SET_NO":999,"REV_AT_EPOCH":46710,"BSTAR":0.00039699196,"MEAN_MOTION_DOT":0.0001239,"MEAN_MOTION_DDOT":0},{"OBJECT_NAME":"STARLINK-33614","OBJECT_ID":"2025-063K","EPOCH":"2026-03-09T22:32:32.106336","MEAN_MOTION":15.30211631,"ECCENTRICITY":0.00014776,"INCLINATION":53.1615,"RA_OF_ASC_NODE":48.7489,"ARG_OF_PERICENTER":67.0308,"MEAN_ANOMALY":293.0849,"EPHEMERIS_TYPE":0,"CLASSIFICATION_TYPE":"U","NORAD_CAT_ID":63372,"ELEMENT_SET_NO":999,"REV_AT_EPOCH":5483,"BSTAR":0.00097506618,"MEAN_MOTION_DOT":0.00028641,"MEAN_MOTION_DDOT":0}]
